GLOBAL-2                
1 43812U 18099BG  26068.69955396  .00003970  00000+0  26145-3 0  9998
2 43812  97.3697 109.3280 0007454 127.1924 232.9986 15.08046936396919
STARLINK-3995           
1 52632U 22052AL  26068.71928928 -.00000677  00000+0 -24463-4 0  9991
2 52632  53.2170 268.9887 0001397 109.2059 250.9085 15.08835895211007
